STARLINK-36907          
1 67940U 26037J   26083.50002314 -.02032497  00000+0 -36044-1 0  9994
2 67940  43.0000 108.6343 0000889 268.2518 245.1265 15.52658519  5576
STARLINK-36927          
1 67941U 26037K   26083.50002314  .00110443  00000+0  18668-2 0  9992
2 67941  42.9996 108.7955 0001066 265.0724 182.6528 15.50506119  5574
STARLINK-36914          
1 67942U 26037L   26083.50002314 -.01848954  00000+0 -28428-1 0  9995
2 67942  43.0001 108.4123 0001043 277.2835 325.9754 15.56733047  5572
STARLINK-36851          
1 67943U 26037M   26083.50002314  .00119650  00000+0  20233-2 0  9994
2 67943  42.9996 108.7615 0001432 311.8047 149.8942 15.50452849  5579
STARLINK-36892          
1 67944U 26037N   26083.50002314 -.00959766  00000+0 -17426-1 0  9996
2 67944  42.9996 108.6879 0001628 293.8554 197.7658 15.51251557  5570
STARLINK-36908          
1 67945U 26037P   26083.50002314 -.01929399  00000+0 -34299-1 0  9994
2 67945  43.0000 108.6128 0001192 281.4007 240.4203 15.52422711  5573
STARLINK-36909          
1 67946U 26037Q   26083.50002314 -.01845887  00000+0 -26177-1 0  9990
2 67946  43.0001 108.2371 0001207 281.2898  31.8337 15.58852559  5588
STARLINK-36920          
1 67947U 26037R   26083.50002314  .00136592  00000+0  22981-2 0  9994
2 67947  42.9999 108.9006 0001728 274.8965 129.8963 15.50525407  5580
STARLINK-36873          
1 67948U 26037S   26083.50002314 -.00025467  00000+0 -42941-3 0  9994
2 67948  42.9999 108.9730 0002192 305.8915  69.4419 15.50595092  5583
STARLINK-36863          
1 67949U 26037T   26083.50002314  .00127201  00000+0  21473-2 0  9998
2 67949  42.9999 108.6575 0000976 293.2210 210.0922 15.50470309  5580
STARLINK-36887          
1 67950U 26037U   26083.50002314  .00101224  00000+0  17130-2 0  9992
2 67950  42.9997 109.5885 0001541 280.0489 206.4311 15.50512911  5582
STARLINK-36897          
1 67951U 26037V   26083.50002314  .00117219  00000+0  19815-2 0  9996
2 67951  42.9999 108.7036 0000896 297.5557 186.5285 15.50473373  5581
